{
  "type": "FeatureCollection",
  "features": [
    {
      "type": "Feature",
      "properties": {
        "norad_id": 24876,
        "name": "GPS BIIR-2  (PRN 13)",
        "group": "gnss",
        "lat": 40.32026965836949,
        "lon": -109.11711358746712,
        "alt_km": 20094.229508413464,
        "timestamp": "2025-12-10T09:57:44.941460+00:00",
        "meta_object_name": "GPS BIIR-2  (PRN 13)",
        "meta_object_id": "1997-035A",
        "meta_epoch": "2025-12-09T17:47:19.153824",
        "meta_mean_motion": 2.00563565,
        "meta_eccentricity": 0.0096748,
        "meta_inclination": 55.8939,
        "meta_ra_of_asc_node": 105.9862,
        "meta_arg_of_pericenter": 57.0132,
        "meta_mean_anomaly": 303.8899,
        "meta_ephemeris_type": 0,
        "meta_classification_type": "U",
        "meta_norad_cat_id": 24876,
        "meta_element_set_no": 999,
        "meta_rev_at_epoch": 20815,
        "meta_bstar": 0,
        "meta_mean_motion_dot": 2.2e-07,
        "meta_mean_motion_ddot": 0,
        "tle_line1": "1 24876U 97035A   25343.74119391  .00000022  00000+0  00000+0 0  9995",
        "tle_line2": "2 24876  55.8939 105.9862 0096748  57.0132 303.8899  2.00563565208159"
      },
      "geometry": {
        "type": "Point",
        "coordinates": [
          -109.11711358746712,
          40.32026965836949
        ]
      }
    },
    {
      "type": "Feature",
      "properties": {
        "norad_id": 26360,
        "name": "GPS BIIR-4  (PRN 20)",
        "group": "gnss",
        "lat": -31.223366916235484,
        "lon": -127.97858978222477,
        "alt_km": 20090.221556509303,
        "timestamp": "2025-12-10T09:57:44.941506+00:00",
        "meta_object_name": "GPS BIIR-4  (PRN 20)",
        "meta_object_id": "2000-025A",
        "meta_epoch": "2025-12-10T02:56:33.389088",
        "meta_mean_motion": 2.00567859,
        "meta_eccentricity": 0.0038854,
        "meta_inclination": 55.0436,
        "meta_ra_of_asc_node": 26.9437,
        "meta_arg_of_pericenter": 241.7395,
        "meta_mean_anomaly": 126.4699,
        "meta_ephemeris_type": 0,
        "meta_classification_type": "U",
        "meta_norad_cat_id": 26360,
        "meta_element_set_no": 999,
        "meta_rev_at_epoch": 18748,
        "meta_bstar": 0,
        "meta_mean_motion_dot": -9.6e-07,
        "meta_mean_motion_ddot": 0,
        "tle_line1": "1 26360U 00025A   25344.12260867 -.00000096  00000+0  00000+0 0  9998",
        "tle_line2": "2 26360  55.0436  26.9437 0038854 241.7395 126.4699  2.00567859187489"
      },
      "geometry": {
        "type": "Point",
        "coordinates": [
          -127.97858978222477,
          -31.223366916235484
        ]
      }
    },
    {
      "type": "Feature",
      "properties": {
        "norad_id": 26407,
        "name": "GPS BIIR-5  (PRN 22)",
        "group": "gnss",
        "lat": 45.237060701226774,
        "lon": -92.18980656770825,
        "alt_km": 20332.42365906978,
        "timestamp": "2025-12-10T09:57:44.941524+00:00",
        "meta_object_name": "GPS BIIR-5  (PRN 22)",
        "meta_object_id": "2000-040A",
        "meta_epoch": "2025-12-09T20:17:06.583776",
        "meta_mean_motion": 2.00567874,
        "meta_eccentricity": 0.0126172,
        "meta_inclination": 54.8914,
        "meta_ra_of_asc_node": 222.6841,
        "meta_arg_of_pericenter": 301.7549,
        "meta_mean_anomaly": 65.7518,
        "meta_ephemeris_type": 0,
        "meta_classification_type": "U",
        "meta_norad_cat_id": 26407,
        "meta_element_set_no": 999,
        "meta_rev_at_epoch": 18615,
        "meta_bstar": 0,
        "meta_mean_motion_dot": 2e-08,
        "meta_mean_motion_ddot": 0,
        "tle_line1": "1 26407U 00040A   25343.84521509  .00000002  00000+0  00000+0 0  9994",
        "tle_line2": "2 26407  54.8914 222.6841 0126172 301.7549  65.7518  2.00567874186157"
      },
      "geometry": {
        "type": "Point",
        "coordinates": [
          -92.18980656770825,
          45.237060701226774
        ]
      }
    },
    {
      "type": "Feature",
      "properties": {
        "norad_id": 27663,
        "name": "GPS BIIR-8  (PRN 16)",
        "group": "gnss",
        "lat": -12.90755877378667,
        "lon": 51.73902888139808,
        "alt_km": 20498.585546321494,
        "timestamp": "2025-12-10T09:57:44.941539+00:00",
        "meta_object_name": "GPS BIIR-8  (PRN 16)",
        "meta_object_id": "2003-005A",
        "meta_epoch": "2025-12-09T15:52:30.360000",
        "meta_mean_motion": 2.00571029,
        "meta_eccentricity": 0.0147333,
        "meta_inclination": 54.924,
        "meta_ra_of_asc_node": 222.5008,
        "meta_arg_of_pericenter": 51.758,
        "meta_mean_anomaly": 318.9168,
        "meta_ephemeris_type": 0,
        "meta_classification_type": "U",
        "meta_norad_cat_id": 27663,
        "meta_element_set_no": 999,
        "meta_rev_at_epoch": 16751,
        "meta_bstar": 0,
        "meta_mean_motion_dot": 3e-08,
        "meta_mean_motion_ddot": 0,
        "tle_line1": "1 27663U 03005A   25343.66146250  .00000003  00000+0  00000+0 0  9990",
        "tle_line2": "2 27663  54.9240 222.5008 0147333  51.7580 318.9168  2.00571029167518"
      },
      "geometry": {
        "type": "Point",
        "coordinates": [
          51.73902888139808,
          -12.90755877378667
        ]
      }
    },
    {
      "type": "Feature",
      "properties": {
        "norad_id": 28190,
        "name": "GPS BIIR-11 (PRN 19)",
        "group": "gnss",
        "lat": -5.2837837343661365,
        "lon": -80.41457322649957,
        "alt_km": 20469.761117941696,
        "timestamp": "2025-12-10T09:57:44.941554+00:00",
        "meta_object_name": "GPS BIIR-11 (PRN 19)",
        "meta_object_id": "2004-009A",
        "meta_epoch": "2025-12-09T02:41:41.936352",
        "meta_mean_motion": 2.00560834,
        "meta_eccentricity": 0.01083049,
        "meta_inclination": 54.989,
        "meta_ra_of_asc_node": 283.3651,
        "meta_arg_of_pericenter": 167.5856,
        "meta_mean_anomaly": 325.415,
        "meta_ephemeris_type": 0,
        "meta_classification_type": "U",
        "meta_norad_cat_id": 28190,
        "meta_element_set_no": 999,
        "meta_rev_at_epoch": 15913,
        "meta_bstar": 0,
        "meta_mean_motion_dot": -5.3e-07,
        "meta_mean_motion_ddot": 0,
        "tle_line1": "1 28190U 04009A   25343.11229093 -.00000053  00000+0  00000+0 0  9994",
        "tle_line2": "2 28190  54.9890 283.3651 0108304 167.5856 325.4150  2.00560834159136"
      },
      "geometry": {
        "type": "Point",
        "coordinates": [
          -80.41457322649957,
          -5.2837837343661365
        ]
      }
    },
    {
      "type": "Feature",
      "properties": {
        "norad_id": 28474,
        "name": "GPS BIIR-13 (PRN 02)",
        "group": "gnss",
        "lat": 42.679708721712764,
        "lon": 12.295055480490108,
        "alt_km": 20298.966799498397,
        "timestamp": "2025-12-10T09:57:44.941567+00:00",
        "meta_object_name": "GPS BIIR-13 (PRN 02)",
        "meta_object_id": "2004-045A",
        "meta_epoch": "2025-12-09T12:22:18.068160",
        "meta_mean_motion": 2.00569281,
        "meta_eccentricity": 0.01706994,
        "meta_inclination": 55.2423,
        "meta_ra_of_asc_node": 332.5354,
        "meta_arg_of_pericenter": 309.1094,
        "meta_mean_anomaly": 175.0293,
        "meta_ephemeris_type": 0,
        "meta_classification_type": "U",
        "meta_norad_cat_id": 28474,
        "meta_element_set_no": 999,
        "meta_rev_at_epoch": 15462,
        "meta_bstar": 0,
        "meta_mean_motion_dot": -8.4e-07,
        "meta_mean_motion_ddot": 0,
        "tle_line1": "1 28474U 04045A   25343.51548690 -.00000084  00000+0  00000+0 0  9994",
        "tle_line2": "2 28474  55.2423 332.5354 0170699 309.1094 175.0293  2.00569281154629"
      },
      "geometry": {
        "type": "Point",
        "coordinates": [
          12.295055480490108,
          42.679708721712764
        ]
      }
    },
    {
      "type": "Feature",
      "properties": {
        "norad_id": 28874,
        "name": "GPS BIIRM-1 (PRN 17)",
        "group": "gnss",
        "lat": 11.441699713045022,
        "lon": -71.08736981187889,
        "alt_km": 20117.527633630893,
        "timestamp": "2025-12-10T09:57:44.941581+00:00",
        "meta_object_name": "GPS BIIRM-1 (PRN 17)",
        "meta_object_id": "2005-038A",
        "meta_epoch": "2025-12-09T01:52:55.801632",
        "meta_mean_motion": 2.0057855,
        "meta_eccentricity": 0.01317498,
        "meta_inclination": 55.0352,
        "meta_ra_of_asc_node": 280.8483,
        "meta_arg_of_pericenter": 293.4065,
        "meta_mean_anomaly": 193.8993,
        "meta_ephemeris_type": 0,
        "meta_classification_type": "U",
        "meta_norad_cat_id": 28874,
        "meta_element_set_no": 999,
        "meta_rev_at_epoch": 14802,
        "meta_bstar": 0,
        "meta_mean_motion_dot": -5e-07,
        "meta_mean_motion_ddot": 0,
        "tle_line1": "1 28874U 05038A   25343.07842363 -.00000050  00000+0  00000+0 0  9999",
        "tle_line2": "2 28874  55.0352 280.8483 0131749 293.4065 193.8993  2.00578550148027"
      },
      "geometry": {
        "type": "Point",
        "coordinates": [
          -71.08736981187889,
          11.441699713045022
        ]
      }
    }
  ]
}